TANDEM-X                
1 36605U 10030A   17345.76891500 -.00231319  00000-0 -11366-1 0  9999
2 36605  97.4563 350.8800 0001691 104.9828   9.1675 15.19141553414573
